SatCatId,ObjectName,LaunchYear,OrbitalPeriod,LaunchMass,StatusCode,Inclination,Status,UcsData,OrbitClassEstimated,LaunchSiteCountry,Owner,UseType,Purpose,LaunchVehicleClass,TLE1,TLE2,MeanMotion,Eccentricity,OrbitClass
26082,GLOBALSTAR M062,2000,115.81,-1.0,-,51.98,Inactive,0,LEO,USA,Globalstar,Unknown,Unknown,Unknown,1 26082U 00008B   25158.66202406 -.00000084  00000+0  10146-3 0  9990,2 26082  51.9830 123.7918 0007124  88.5897  82.8682 12.43468082495433,12.43468082,0.0007124,LEO
26083,GLOBALSTAR M060,2000,118.26,-1.0,-,52.0,Inactive,0,LEO,USA,Globalstar,Unknown,Unknown,Unknown,1 26083U 00008C   25158.87221039 -.00000054  00000+0  37039-3 0  9994,2 26083  52.0021  81.8632 0003424  96.3722 336.2500 12.17661401151400,12.17661401,0.0003424,LEO
26084,GLOBALSTAR M064,2000,121.16,-1.0,-,52.0,Inactive,0,LEO,USA,Globalstar,Unknown,Unknown,Unknown,1 26084U 00008D   25158.89257620 -.00000073  00000+0  14482-3 0  9990,2 26084  52.0022 234.9892 0001183  56.6345 303.4601 11.88534668165999,11.88534668,0.0001183,LEO
26086,DUMSAT,2000,96.2,-1.0,UNK,64.85,Inactive,0,LEO,Kazakhstan,Russia/USSR,Unknown,Unknown,Unknown,1 26086U 00009A   25159.19644149  .00000160  00000+0  28098-4 0  9998,2 26086  64.8502 156.1508 0023283 276.2881  83.5583 14.96862082382334,14.96862082,0.0023283,LEO
26089,GARUDA 1,2000,1441.38,-1.0,-,8.74,Inactive,0,GSO,Kazakhstan,Indonesia,Unknown,Unknown,Unknown,1 26089U 00011A   25158.49627931 -.00000010  00000+0  00000+0 0  9999,2 26089   8.7323  68.5053 0001429  15.0112 243.3980  0.99904115 37910,0.99904115,0.0001429,GSO
26091,PICOSAT 3,2000,98.76,-1.0,UNK,100.21,Inactive,0,LEO,USA,USA,Unknown,Unknown,Unknown,1 26091U 00004J   25159.01116697  .00001604  00000+0  36147-3 0  9999,2 26091 100.2063 182.5451 0024303 330.1257  29.8547 14.58111914335945,14.58111914,0.0024303,LEO
26092,PICOSAT 4,2000,99.46,-1.0,UNK,100.18,Inactive,0,LEO,USA,USA,Unknown,Unknown,Unknown,1 26092U 00004K   25158.79945340  .00000774  00000+0  22407-3 0  9990,2 26092 100.1846 103.3100 0032201 138.0885 222.2775 14.47885848332147,14.47885848,0.0032201,LEO
26093,PICOSAT 5,2000,98.46,-1.0,UNK,100.19,Inactive,0,LEO,USA,USA,Unknown,Unknown,Unknown,1 26093U 00004L   25158.65491504  .00001955  00000+0  39769-3 0  9995,2 26093 100.1877 213.7198 0024033 239.8213 120.0601 14.62494359337658,14.62494359,0.0024033,LEO
26094,PICOSAT 6,2000,99.56,-1.0,UNK,100.19,Inactive,0,LEO,USA,USA,Unknown,Unknown,Unknown,1 26094U 00004M   25158.60770149  .00000676  00000+0  20392-3 0  9997,2 26094 100.1864  94.5514 0031939 177.5750 182.5597 14.46424520331093,14.4642452,0.0031939,LEO
26095,SUPERBIRD-B2,2000,1456.72,-1.0,-,7.36,Inactive,0,GSO,French Guiana,Japan,Unknown,Unknown,Unknown,1 26095U 00012A   25158.87106964 -.00000062  00000+0  00000+0 0  9994,2 26095   7.3552  68.8739 0014278 138.7774  24.0385  0.98852073 41072,0.98852073,0.0014278,GSO
26098,EXPRESS-A2,2000,1465.54,-1.0,-,12.63,Inactive,0,GSO,Kazakhstan,Russia/USSR,Unknown,Unknown,Unknown,1 26098U 00013A   25158.50270172 -.00000178  00000+0  00000+0 0  9999,2 26098  12.6293  25.9473 0007655  35.7175 339.8879  0.98258033 91703,0.98258033,0.0007655,GSO
17911,COSMOS 1842,1987,93.5,-1.0,UNK,82.51,Inactive,0,LEO,Russia,Russia/USSR,Unknown,Unknown,Unknown,1 17911U 87038A   25158.62404444  .00009689  00000+0  24057-3 0  9996,2 17911  82.5108 202.7788 0006508 197.0089 163.0940 15.40158048 82843,15.40158048,0.0006508,LEO
26106,CLUSTER 2 & FREGAT R/B,2000,312.2,-1.0,UNK,65.1,Inactive,0,MEO,Kazakhstan,Russia/USSR,Unknown,Unknown,Unknown,1 26106U 00015A   25158.51045772 -.00000040  00000+0  75331-4 0  9990,2 26106  65.1003 279.0254 5479604 284.7094  22.9900  4.61244779420923,4.61244779,0.5479604,MEO
26108,INSAT-3B,2000,1444.91,-1.0,-,10.09,Inactive,0,GSO,French Guiana,India,Unknown,Unknown,Unknown,1 26108U 00016B   25159.07197509 -.00000261  00000+0  00000+0 0  9992,2 26108  10.0843  48.7923 0003377 222.6376 319.9320  0.99660722 92027,0.99660722,0.0003377,GSO
9737,COSMOS 890,1977,104.96,-1.0,UNK,82.96,Inactive,0,LEO,Russia,Russia/USSR,Unknown,Unknown,Unknown,1 09737U 77004A   25159.18995365  .00000046  00000+0  33780-4 0  9996,2 09737  82.9604  79.9666 0024769 242.9333 238.2365 13.71886973421339,13.71886973,0.0024769,LEO
17969,GORIZONT 14,1987,1474.5,-1.0,-,11.36,Inactive,0,GSO,Kazakhstan,Russia/USSR,Unknown,Unknown,Unknown,1 17969U 87040A   25158.62267924 -.00000095  00000+0  00000+0 0  9993,2 17969  11.3643 322.1194 0029562 202.4364 165.0019  0.97659333116206,0.97659333,0.0029562,GSO
17973,COSMOS 1844,1987,101.8,-1.0,UNK,70.9,Inactive,0,LEO,Kazakhstan,Russia/USSR,Unknown,Unknown,Unknown,1 17973U 87041A   25159.01975345  .00000253  00000+0  15660-3 0  9993,2 17973  70.8987 253.4863 0028941  74.1983 286.2326 14.14470644964941,14.14470644,0.0028941,LEO
9785,NATO 3B,1977,1511.5,-1.0,UNK,8.97,Inactive,0,HEO,USA,NATO,Unknown,Unknown,Unknown,1 09785U 77005A   25158.55667368 -.00000069  00000+0  00000+0 0  9999,2 09785   8.9742 312.7105 0040995  44.4153 336.1292  0.95269074113102,0.95269074,0.0040995,HEO
9803,OPS 3151 (DSP 7),1977,1476.46,-1.0,UNK,5.68,Inactive,0,GSO,USA,USA,Unknown,Unknown,Unknown,1 09803U 77007A   25158.89571904 -.00000139  00000+0  00000+0 0  9997,2 09803   5.6830 287.6010 0078858  30.2002  45.2349  0.97531123 21002,0.97531123,0.0078858,GSO
17997,USA 22,1987,102.86,-1.0,UNK,63.29,Inactive,0,LEO,USA,USA,Unknown,Unknown,Unknown,1 17997U 87043A   25158.84590547  .00011857  00000+0  58201-3 0  9998,2 17997  63.2903 196.8672 0743266 100.9164 267.6363 13.99953932 53831,13.99953932,0.0743266,LEO
18009,USA 23,1987,104.41,-1.0,UNK,63.29,Inactive,0,LEO,USA,USA,Unknown,Unknown,Unknown,1 18009U 87043E   25158.90807503  .00013723  00000+0  78605-3 0  9997,2 18009  63.2933 320.6824 0824781  97.9974 271.5391 13.79201299293719,13.79201299,0.0824781,LEO
18010,USA 24,1987,104.45,-1.0,UNK,63.3,Inactive,0,LEO,USA,USA,Unknown,Unknown,Unknown,1 18010U 87043F   25158.90320482  .00013156  00000+0  74823-3 0  9993,2 18010  63.2965 320.9872 0828440  97.5688 272.0150 13.78631911293701,13.78631911,0.082844,LEO
18025,USA 25,1987,104.24,-1.0,UNK,63.29,Inactive,0,LEO,USA,USA,Unknown,Unknown,Unknown,1 18025U 87043H   25158.85013992  .00014700  00000+0  76313-3 0  9990,2 18025  63.2907 321.0840 0825029  95.9612 273.5981 13.81492555299986,13.81492555,0.0825029,LEO
9841,TANSEI-3 (MS-T3),1977,134.09,-1.0,-,65.76,Inactive,0,MEO,Japan,Japan,Unknown,Unknown,Unknown,1 09841U 77012A   25158.96016693 -.00000050  00000+0 -38306-4 0  9990,2 09841  65.7588  35.4052 1730763   3.7638 357.4540 10.73903277893520,10.73903277,0.1730763,MEO
9846,COSMOS 894,1977,104.79,-1.0,UNK,82.94,Inactive,0,LEO,Russia,Russia/USSR,Unknown,Unknown,Unknown,1 09846U 77013A   25158.85482627  .00000060  00000+0  47027-4 0  9997,2 09846  82.9442  14.0559 0030048 169.2071 201.4540 13.74166116420764,13.74166116,0.0030048,LEO
9852,KIKU-2 (ETS-II),1977,1440.07,-1.0,-,6.21,Inactive,0,GSO,Japan,Japan,Unknown,Unknown,Unknown,1 09852U 77014A   25158.87243755 -.00000127  00000+0  00000+0 0  9994,2 09852   6.2107 287.2112 0002029 170.1395 200.6323  0.99994997123483,0.99994997,0.0002029,GSO
26243,EUTELSAT 16C,2000,1455.24,-1.0,-,10.1,Inactive,0,GSO,Kazakhstan,EUTELSAT,Unknown,Unknown,Unknown,1 26243U 00019A   25158.46611418  .00000036  00000+0  00000+0 0  9996,2 26243  10.0987  49.3028 0004697 112.2545 157.1114  0.98952678 91639,0.98952678,0.0004697,GSO
9862,PALAPA 2,1977,1439.3,-1.0,UNK,9.39,Inactive,0,GSO,USA,Indonesia,Unknown,Unknown,Unknown,1 09862U 77018A   25158.78717462 -.00000271  00000+0  00000+0 0  9990,2 09862   9.3970 312.8380 0005027 129.8707  55.8361  1.00049366139367,1.00049366,0.0005027,GSO
9880,MOLNIYA 1-36,1977,717.79,-1.0,UNK,63.57,Inactive,0,MEO,Russia,Russia/USSR,Unknown,Unknown,Unknown,1 09880U 77021A   25158.14471986  .00001361  00000+0  00000+0 0  9992,2 09880  63.5682 148.3605 6686974 284.3070  14.5058  2.00612279251149,2.00612279,0.6686974,MEO
9903,METEOR 1-27,1977,102.22,-1.0,UNK,81.27,Inactive,0,LEO,Russia,Russia/USSR,Unknown,Unknown,Unknown,1 09903U 77024A   25158.95245780 -.00000014  00000+0 -15465-4 0  9993,2 09903  81.2730 139.8991 0035324 343.7179  16.2853 14.08681305474865,14.08681305,0.0035324,LEO
18095,COSMOS 1850,1987,100.42,-1.0,UNK,74.04,Inactive,0,LEO,Russia,Russia/USSR,Unknown,Unknown,Unknown,1 18095U 87049A   25159.03884637  .00000110  00000+0  48601-4 0  9996,2 18095  74.0399  21.4038 0014095 130.3043 229.9343 14.33985557986542,14.33985557,0.0014095,LEO
26298,GALAXY 4R (G-4R),2000,1442.27,-1.0,-,12.26,Inactive,0,GSO,French Guiana,USA,Unknown,Unknown,Unknown,1 26298U 00020A   25158.86750756 -.00000065  00000+0  00000+0 0  9994,2 26298  12.2568  26.7954 0003729 186.9905 358.6274  0.99842323 91886,0.99842323,0.0003729,GSO
18113,COSMOS 1852,1987,115.67,-1.0,UNK,74.0,Inactive,0,LEO,Russia,Russia/USSR,Unknown,Unknown,Unknown,1 18113U 87051A   25158.66778458 -.00000026  00000+0 -70513-4 0  9996,2 18113  74.0042 257.6590 0016549 143.2894 216.9291 12.44879308725823,12.44879308,0.0016549,LEO
18114,COSMOS 1853,1987,115.48,-1.0,UNK,74.0,Inactive,0,LEO,Russia,Russia/USSR,Unknown,Unknown,Unknown,1 18114U 87051B   25158.52649854  .00000013  00000+0  19462-3 0  9998,2 18114  74.0012 184.5863 0006082  17.9739 150.2547 12.47012469728803,12.47012469,0.0006082,LEO
18115,COSMOS 1854,1987,115.31,-1.0,UNK,74.0,Inactive,0,LEO,Russia,Russia/USSR,Unknown,Unknown,Unknown,1 18115U 87051C   25158.65127669 -.00000014  00000+0  16179-4 0  9993,2 18115  74.0019 122.2522 0014918 264.9151 268.2462 12.48821202731322,12.48821202,0.0014918,LEO
18116,COSMOS 1855,1987,115.13,-1.0,UNK,74.01,Inactive,0,LEO,Russia,Russia/USSR,Unknown,Unknown,Unknown,1 18116U 87051D   25158.96634753 -.00000017  00000+0 -87245-5 0  9992,2 18116  74.0057  56.5829 0019510 157.3761 213.4456 12.50725918734024,12.50725918,0.001951,LEO
